[{"OBJECT_ID":"1964-047A","OBJECT_NAME":"SYNCOM 3","NORAD_CAT_ID":"858","OBJECT_TYPE":"PAYLOAD","PERIOD":"1437.660","INCLINATION":"1.4031","APOGEE":"35839.429","PERIGEE":"35794.980","ECCENTRICITY":"0.0005267","MEAN_MOTION":"1.001627","TLE_LINE1":"1 00858U 64047A   16238.19434689 -.00000267  00000-0  00000+0 0  9991","TLE_LINE2":"2 00858   1.4031 302.4856 0005267 258.4625 128.3781  1.00162700152827","LAUNCH_DATE":"1964-08-19","LAUNCH_SITE":"AIR FORCE EASTERN TEST RANGE","OWNER":"UNITED STATES OF AMERICA","ORBIT_TYPE":"Geosynchronous","OPERATIONAL_STATUS":"Nonoperational","satInfo":{"lng":15.00537230265174,"lat":-0.43553574031332043,"elevation":-8.996638964084182,"azimuth":299.9946276973483,"range":42700.796065949195,"height":35798.550499734825,"velocity":3.0745067315266503},"x":65,"y":-250,"dx":2.9696708298830656,"dy":0.7960193492273364,"maxAlt":257,"minAlt":256},{"OBJECT_ID":"1965-028A","OBJECT_NAME":"INTELSAT 1-F1","NORAD_CAT_ID":"1317","OBJECT_TYPE":"PAYLOAD","PERIOD":"1436.800","INCLINATION":"1.2081","APOGEE":"35826.922","PERIGEE":"35773.794","ECCENTRICITY":"0.0006298","MEAN_MOTION":"1.00222716","TLE_LINE1":"1 01317U 65028A   16236.20629980 -.00000306  00000-0  00000+0 0  9996","TLE_LINE2":"2 01317   1.2081 305.7882 0006298 209.5610 192.0744  1.00222716 91241","LAUNCH_DATE":"1965-04-06","LAUNCH_SITE":"AIR FORCE EASTERN TEST RANGE","OWNER":"INTERNATIONAL TELECOMMUNICATIONS SATELLITE ORGANIZATION (INTELSAT)","ORBIT_TYPE":"Geosynchronous","OPERATIONAL_STATUS":"Nonoperational","satInfo":{"lng":-64.2010501517799,"lat":0.4917347497935501,"elevation":-8.088589578675965,"azimuth":19.201050151779892,"range":42610.14737669871,"height":35809.6639233608,"velocity":3.073603668672101},"x":-234,"y":-114,"dx":1.3376771841841926,"dy":-2.767247596979289,"maxAlt":257,"minAlt":256},{"OBJECT_ID":"1966-053H","OBJECT_NAME":"OPS 9317 (IDSCS 7)","NORAD_CAT_ID":"2221","OBJECT_TYPE":"PAYLOAD","PERIOD":"1347.437","INCLINATION":"1.917","APOGEE":"34355.792","PERIGEE":"33709.887","ECCENTRICITY":"0.0079917","MEAN_MOTION":"1.06869499","TLE_LINE1":"1 02221U 66053H   16238.70761454 -.00000098  00000-0  00000+0 0  9998","TLE_LINE2":"2 02221   1.9170  54.7666 0079917  92.4192 210.7794  1.06869499195682","LAUNCH_DATE":"1966-06-16","LAUNCH_SITE":"AIR FORCE EASTERN TEST RANGE","OWNER":"UNITED STATES OF AMERICA","ORBIT_TYPE":"Unclassified","OPERATIONAL_STATUS":"Nonoperational","satInfo":{"lng":101.36224750319678,"lat":-1.3035798687085163,"elevation":-10.236785187491286,"azimuth":213.6377524968032,"range":40922.116366209026,"height":33902.983478302485,"velocity":3.150791742385363},"x":238,"y":47,"dx":-0.6207418657388621,"dy":3.089040002978729,"maxAlt":246,"minAlt":241},{"OBJECT_ID":"1966-053J","OBJECT_NAME":"TITAN 3C TRANSTAGE R/B","NORAD_CAT_ID":"2222","OBJECT_TYPE":"ROCKET BODY","PERIOD":"1349.323","INCLINATION":"1.7907","APOGEE":"34723.712","PERIGEE":"33417.358","ECCENTRICITY":"0.0161483","MEAN_MOTION":"1.06720139","TLE_LINE1":"1 02222U 66053J   16239.41449384 -.00000104  00000-0  00000+0 0  9991","TLE_LINE2":"2 02222   1.7907  55.3533 0161483  87.1735 143.7467  1.06720139 92273","LAUNCH_DATE":"1966-06-16","LAUNCH_SITE":"AIR FORCE EASTERN TEST RANGE","OWNER":"UNITED STATES OF AMERICA","ORBIT_TYPE":"Unclassified","OPERATIONAL_STATUS":"N/A, derelict rocket body","satInfo":{"lng":-139.52919095769585,"lat":-2.294539438107921,"elevation":-11.030802086520138,"azimuth":94.52919095769585,"range":41809.64678109916,"height":34691.94928143758,"velocity":3.091356515050945},"x":-164,"y":189,"dx":-2.3517084978407548,"dy":-2.0064775713502274,"maxAlt":249,"minAlt":239},{"OBJECT_ID":"1967-003E","OBJECT_NAME":"OPS 9325 (IDSCS 12)","NORAD_CAT_ID":"2652","OBJECT_TYPE":"PAYLOAD","PERIOD":"1334.037","INCLINATION":"1.9597","APOGEE":"33913.350","PERIGEE":"33615.588","ECCENTRICITY":"0.0037088","MEAN_MOTION":"1.07942991","TLE_LINE1":"1 02652U 67003E   16238.37320199 -.00000099  00000-0  00000+0 0  9993","TLE_LINE2":"2 02652   1.9597  52.0302 0037088   6.9099 250.9284  1.07942991101418","LAUNCH_DATE":"1967-01-18","LAUNCH_SITE":"AIR FORCE EASTERN TEST RANGE","OWNER":"UNITED STATES OF AMERICA","ORBIT_TYPE":"Unclassified","OPERATIONAL_STATUS":"Nonoperational","satInfo":{"lng":-51.00743189305776,"lat":2.8283737646828584,"elevation":-6.266734156883479,"azimuth":6.007431893057748,"range":40180.499419840475,"height":33610.92563477522,"velocity":3.163250778376933},"x":-190,"y":-154,"dx":1.990379330549549,"dy":-2.4585657622734844,"maxAlt":243,"minAlt":241},{"OBJECT_ID":"1967-003F","OBJECT_NAME":"OPS 9326 (IDSCS 13)","NORAD_CAT_ID":"2653","OBJECT_TYPE":"PAYLOAD","PERIOD":"1336.447","INCLINATION":"1.8775","APOGEE":"33981.920","PERIGEE":"33643.681","ECCENTRICITY":"0.0042079","MEAN_MOTION":"1.0774834","TLE_LINE1":"1  2653U 67003F   16238.79146571 -.00000080 +00000-0 +00000-0 0  9991","TLE_LINE2":"2  2653 001.8775 049.9699 0042079 352.4148 004.0194 01.07748340094084","LAUNCH_DATE":"1967-01-18","LAUNCH_SITE":"AIR FORCE EASTERN TEST RANGE","OWNER":"UNITED STATES OF AMERICA","ORBIT_TYPE":"Unclassified","OPERATIONAL_STATUS":"Nonoperational","satInfo":{"lng":158.16559317820443,"lat":-3.4391245589964337,"elevation":-12.300071825113331,"azimuth":156.83440682179557,"range":41179.18885814223,"height":33928.30751635967,"velocity":3.140245313210555},"x":89,"y":225,"dx":-2.9149724314395926,"dy":1.167936792419866,"maxAlt":243,"minAlt":241},{"OBJECT_ID":"1967-003G","OBJECT_NAME":"OPS 9327 (IDSCS 14)","NORAD_CAT_ID":"2654","OBJECT_TYPE":"PAYLOAD","PERIOD":"1339.390","INCLINATION":"1.7686","APOGEE":"34080.865","PERIGEE":"33662.717","ECCENTRICITY":"0.0051944","MEAN_MOTION":"1.07511551","TLE_LINE1":"1 02654U 67003G   16238.63742149 -.00000129  00000-0  00000+0 0  9991","TLE_LINE2":"2 02654   1.7686  49.6125 0051944 337.9923 282.7105  1.07511551101006","LAUNCH_DATE":"1967-01-18","LAUNCH_SITE":"AIR FORCE EASTERN TEST RANGE","OWNER":"UNITED STATES OF AMERICA","ORBIT_TYPE":"Unclassified","OPERATIONAL_STATUS":"Nonoperational","satInfo":{"lng":-143.17417584040533,"lat":-2.0700894850957883,"elevation":-11.011678506493757,"azimuth":98.17417584040531,"range":40864.28347072663,"height":33759.93113608713,"velocity":3.1557291593719317},"x":-147,"y":193,"dx":-2.526039064534737,"dy":-1.8914949568409503,"maxAlt":244,"minAlt":241},{"OBJECT_ID":"1967-003H","OBJECT_NAME":"OPS 9328 (IDSCS 15)","NORAD_CAT_ID":"2655","OBJECT_TYPE":"PAYLOAD","PERIOD":"1342.908","INCLINATION":"1.655","APOGEE":"34206.209","PERIGEE":"33678.246","ECCENTRICITY":"0.0065471","MEAN_MOTION":"1.07229953","TLE_LINE1":"1  2655U 67003H   16238.58920265 -.00000113 +00000-0 +00000-0 0  9997","TLE_LINE2":"2  2655 001.6550 046.4400 0065471 329.2350 288.8612 01.07229953100781","LAUNCH_DATE":"1967-01-18","LAUNCH_SITE":"AIR FORCE EASTERN TEST RANGE","OWNER":"UNITED STATES OF AMERICA","ORBIT_TYPE":"Unclassified","OPERATIONAL_STATUS":"Nonoperational","satInfo":{"lng":144.13302629332114,"lat":-3.00420384265725,"elevation":-11.847819844682533,"azimuth":170.86697370667886,"range":41278.980687485164,"height":34076.99090601264,"velocity":3.1337368978695737},"x":142,"y":197,"dx":-2.5395161441188088,"dy":1.8360731736042433,"maxAlt":245,"minAlt":241},{"OBJECT_ID":"1968-050A","OBJECT_NAME":"OPS 9341 (IDSCS 20)","NORAD_CAT_ID":"3284","OBJECT_TYPE":"PAYLOAD","PERIOD":"1335.132","INCLINATION":"1.1283","APOGEE":"33844.886","PERIGEE":"33727.991","ECCENTRICITY":"0.0014552","MEAN_MOTION":"1.07854435","TLE_LINE1":"1 03284U 68050A   16238.36467490 -.00000116  00000-0  00000+0 0  9993","TLE_LINE2":"2 03284   1.1283  13.1313 0014552 123.0153 186.8308  1.07854435 96307","LAUNCH_DATE":"1968-06-13","LAUNCH_SITE":"AIR FORCE EASTERN TEST RANGE","OWNER":"UNITED STATES OF AMERICA","ORBIT_TYPE":"Unclassified","OPERATIONAL_STATUS":"Nonoperational","satInfo":{"lng":-43.03991769268584,"lat":1.479338224306283,"elevation":-7.554623353145036,"azimuth":358.03991769268583,"range":40479.62188872494,"height":33763.48565350531,"velocity":3.1521155639039624},"x":-167,"y":-179,"dx":2.30381311440477,"dy":-2.151343222756933,"maxAlt":242,"minAlt":242},{"OBJECT_ID":"1968-050B","OBJECT_NAME":"OPS 9342 (IDSCS 21)","NORAD_CAT_ID":"3285","OBJECT_TYPE":"PAYLOAD","PERIOD":"1335.578","INCLINATION":"1.1163","APOGEE":"33861.163","PERIGEE":"33729.602","ECCENTRICITY":"0.0016374","MEAN_MOTION":"1.0781842","TLE_LINE1":"1  3285U 68050B   16238.28024147 -.00000076 +00000-0 +00000-0 0  9999","TLE_LINE2":"2  3285 001.1163 014.1144 0016374 121.6455 091.8458 01.07818420189534","LAUNCH_DATE":"1968-06-13","LAUNCH_SITE":"AIR FORCE EASTERN TEST RANGE","OWNER":"UNITED STATES OF AMERICA","ORBIT_TYPE":"Unclassified","OPERATIONAL_STATUS":"Nonoperational","satInfo":{"lng":108.94691183087245,"lat":-1.4307861150605483,"elevation":-10.384968320647285,"azimuth":206.05308816912753,"range":40824.25552401461,"height":33789.878463968504,"velocity":3.1503824118742947},"x":229,"y":78,"dx":-1.0229037517712256,"dy":2.9796941547177704,"maxAlt":242,"minAlt":242},{"OBJECT_ID":"1968-050C","OBJECT_NAME":"OPS 9343 (IDSCS 22)","NORAD_CAT_ID":"3286","OBJECT_TYPE":"PAYLOAD","PERIOD":"1336.331","INCLINATION":"1.1078","APOGEE":"33890.399","PERIGEE":"33730.561","ECCENTRICITY":"0.0019886","MEAN_MOTION":"1.07757669","TLE_LINE1":"1  3286U 68050C   16238.27210199 -.00000110 +00000-0 +00000-0 0  9992","TLE_LINE2":"2  3286 001.1078 012.6862 0019886 119.0809 151.7313 01.07757669008842","LAUNCH_DATE":"1968-06-13","LAUNCH_SITE":"AIR FORCE EASTERN TEST RANGE","OWNER":"UNITED STATES OF AMERICA","ORBIT_TYPE":"Unclassified","OPERATIONAL_STATUS":"Nonoperational","satInfo":{"lng":-87.14589587249894,"lat":1.2014513467572252,"elevation":-7.81142104220841,"azimuth":42.14589587249892,"range":40576.83818050405,"height":33831.00977311038,"velocity":3.147755342808199},"x":-245,"y":-14,"dx":0.15673591636891432,"dy":-3.143850751975602,"maxAlt":243,"minAlt":242}]